OBJECT_NAME,OBJECT_ID,EPOCH,MEAN_MOTION,ECCENTRICITY,INCLINATION,RA_OF_ASC_NODE,ARG_OF_PERICENTER,MEAN_ANOMALY,EPHEMERIS_TYPE,CLASSIFICATION_TYPE,NORAD_CAT_ID,ELEMENT_SET_NO,REV_AT_EPOCH,BSTAR,MEAN_MOTION_DOT,MEAN_MOTION_DDOT
H2SAT (HEINRICH HERTZ),2023-093A,2026-06-25T07:28:10.234848,1.00269986,.0000848,0.0482,107.4304,17.0766,261.6799,0,U,57213,999,1099,0,.11E-6,0
SYRACUSE 4B,2023-093B,2026-06-24T09:11:31.767648,1.00269725,.00002671,0.0239,21.5852,108.5537,273.8248,0,U,57214,999,703,0,0,0
JUPITER 3 (ECHOSTAR 24),2023-108A,2026-06-25T12:06:20.655936,1.00270327,.0001123,0.0219,12.0654,77.8075,270.1400,0,U,57479,999,1073,0,0,0
GALAXY 37 (G-37),2023-112A,2026-06-26T05:19:29.059968,1.00271651,.0002232,0.0127,50.4635,41.3720,135.3846,0,U,57493,999,1063,0,.59E-6,0
LUDI TANCE-4 01A,2023-120A,2026-06-26T01:00:06.780960,1.00268051,.0001355,15.0986,193.7428,22.0692,162.9814,0,U,57624,999,1063,0,-.154E-5,0
TJS-10,2023-169A,2026-06-25T17:00:51.341184,1.00272103,.0003897,2.5665,80.3985,103.7628,77.3463,0,U,58204,999,962,0,-.241E-5,0
ZHONGXING-6E,2023-172A,2026-06-25T23:24:49.431168,1.00277070,.0002645,0.0373,262.0640,191.5666,287.1656,0,U,58253,999,974,0,-.351E-5,0
YAOGAN-41,2023-197A,2026-06-26T06:17:42.892800,1.00276694,.0014137,3.1118,313.2887,195.3283,343.3324,0,U,58582,999,941,0,-.348E-5,0
OVZON-3,2024-003A,2026-06-26T04:17:00.627936,1.00273286,.0000256,0.0162,38.4993,68.1442,291.6076,0,U,58698,999,753,0,0,0
INSAT-3DS,2024-033A,2026-06-26T02:40:43.027968,1.00270750,.0001449,0.0597,101.6372,343.2032,311.6553,0,U,58990,999,4715,0,-.145E-5,0
MERAH PUTIH 2,2024-035A,2026-06-25T23:24:11.989728,1.00276156,.0001528,0.0161,47.4615,47.8430,282.7990,0,U,58995,999,867,0,-.347E-5,0
TJS-11,2024-037A,2026-06-25T23:24:04.502304,1.00272649,.0003443,4.1874,327.1983,114.9735,295.6196,0,U,59020,999,867,0,-.351E-5,0
HULIANWAN GAOGUI-01 (HG-01),2024-040A,2026-06-26T02:26:51.854784,1.00273849,.0002954,0.0689,330.8922,74.7302,298.9013,0,U,59069,999,741,0,.167E-5,0
EUTELSAT 36D,2024-059A,2026-06-26T04:10:08.785920,1.00269712,.0000409,0.0253,19.7374,97.9501,254.9924,0,U,59346,999,823,0,0,0
PAKSAT-MM1,2024-104A,2026-06-25T12:46:49.721088,1.00270693,.0002838,0.0388,91.2975,342.6532,69.5789,0,U,59915,999,761,0,.164E-5,0
ASTRA 1P (SES-24),2024-115A,2026-06-24T21:45:00.000000,1.00274964,.00008284,0.0595,340.0652,24.8630,253.5862,0,U,60086,999,727,0,.129E-5,0
GOES 19,2024-119A,2026-06-26T03:34:38.794368,1.00271463,.0000516,0.0451,166.7323,335.1295,110.8843,0,U,60133,999,705,0,-.237E-5,0
ZHONGXING-3A,2024-122A,2026-06-26T06:11:25.553760,1.00270889,.0001472,0.0422,127.6398,352.7499,348.4318,0,U,60179,999,740,0,-.302E-5,0
TURKSAT 6A,2024-127A,2026-06-25T08:38:38.566176,1.00275873,.0001925,0.0588,220.3166,272.6888,312.1748,0,U,60233,999,709,0,.156E-5,0
HULIANWAN GAOGUI-02 (HG-02),2024-135A,2026-06-25T03:36:38.736576,1.00271607,.0007449,0.0431,357.3362,13.5264,109.6933,0,U,60327,999,758,0,-.164E-5,0
ZHONGXING-4A,2024-151A,2026-06-26T01:08:20.992416,1.00269746,.0000508,1.2914,270.7135,208.0564,290.7105,0,U,60606,999,684,0,-.35E-5,0
HULIANWAN GAOGUI-03 (HG-03),2024-181A,2026-06-25T08:48:40.628160,1.00273676,.0001415,0.0460,358.5440,93.2530,236.7381,0,U,61503,999,690,0,-.231E-5,0
DSN-3 (KIRAMEKI-3),2024-198A,2026-06-25T21:50:23.224128,1.00269696,.0000936,0.0170,330.8442,145.3294,269.4917,0,U,61733,999,600,0,-.24E-5,0
KOREASAT 6A,2024-206A,2026-06-25T23:25:04.406016,1.00269372,.0001096,0.0153,12.1464,70.4247,298.8295,0,U,61910,999,592,0,0,0
OPTUS-X (ADS-01),2024-212A,2026-06-25T21:53:52.890144,1.00272073,.0002237,0.0186,0.8340,128.2739,269.7883,0,U,62006,999,584,0,-.133E-5,0
GSAT-N2 (GSAT-20),2024-214A,2026-06-26T04:19:15.412800,1.00272136,.0002209,0.0579,103.3823,342.1410,321.5328,0,U,62028,999,598,0,-.8E-7,0
SXM-9,2024-234A,2026-06-26T03:35:38.704992,1.00270170,.0004629,0.0127,341.4389,337.4008,284.1884,0,U,62259,999,566,0,-.194E-5,0
TJS-12,2024-246A,2026-06-24T18:47:39.350112,1.00268446,.00021091,0.6533,299.9327,91.7487,309.6330,0,U,62374,999,564,0,-.223E-5,0
NUVIEW ALPHA,2024-252B,2026-06-26T03:42:38.717856,1.00273242,.0001069,0.0491,28.7310,33.0215,185.1080,0,U,62455,999,391,0,-.205E-5,0
AGILA,2024-252C,2026-06-25T21:52:38.008992,1.00271724,.0001611,0.0625,126.2276,345.9517,282.1734,0,U,62456,999,524,0,-.171E-5,0
NUVIEW BRAVO,2024-252D,2026-06-26T03:42:38.717856,1.00272489,.0002154,0.0721,152.7290,329.8063,124.3110,0,U,62457,999,388,0,-.204E-5,0
THURAYA-4,2025-001A,2026-06-26T04:12:31.059072,1.00272190,.0000152,0.0221,63.7573,332.8179,345.1633,0,U,62483,999,426,0,.15E-5,0
SHIJIAN-25 (SJ-25),2025-002A,2026-06-25T10:13:01.458048,1.00281333,.0051294,5.1328,61.1186,174.7504,318.1709,0,U,62485,999,544,0,-.344E-5,0
TJS-14,2025-017A,2026-06-26T04:05:09.264768,1.00268957,.0001129,0.7620,296.2587,295.2224,122.5142,0,U,62804,999,536,0,.127E-5,0
SPAINSAT NG I,2025-021A,2026-06-25T23:00:14.286816,1.00271389,.0000402,0.0186,4.2156,134.5162,149.3977,0,U,62852,999,407,0,.162E-5,0
QZS-6 (MICHIBIKI-6),2025-023A,2026-06-25T14:29:38.517792,1.00273214,.0001986,0.0573,280.3752,187.0073,114.2719,0,U,62876,999,503,0,-.223E-5,0
ZHONGXING-10R,2025-036A,2026-06-25T14:21:38.812032,1.00268932,.0004186,0.0696,251.1623,248.2559,100.2216,0,U,63075,999,504,0,-.341E-5,0
TJS-15,2025-045A,2026-06-25T04:03:38.815200,1.00268454,.0004677,0.2998,85.5640,302.1765,40.8403,0,U,63157,999,483,0,-.255E-5,0
TIANLIAN 2-04,2025-062A,2026-06-26T04:22:52.567104,1.00272031,.0031186,4.3514,274.3073,10.2593,135.5277,0,U,63361,999,469,0,-.12E-5,0
TJS-16,2025-064A,2026-06-25T17:45:53.438112,1.00272248,.000325,1.1203,81.4288,297.9133,321.6200,0,U,63397,999,447,0,-.95E-6,0
TJS-17,2025-073A,2026-06-25T16:46:55.429824,1.00270793,.0001867,1.0862,82.6426,310.5861,296.8969,0,U,63524,999,437,0,-.6E-6,0
TIANLIAN 2-05,2025-084A,2026-06-24T19:35:04.680096,1.00274890,.00033823,4.4314,279.7471,153.9556,153.4019,0,U,63662,999,445,0,.137E-5,0
TJS-19,2025-097A,2026-06-25T17:40:02.838144,1.00274465,.0003002,3.2716,317.5873,239.9657,122.5839,0,U,63924,999,423,0,-.263E-5,0
CHINASAT 3B,2025-106A,2026-06-25T19:19:38.750304,1.00270818,.0003497,0.0416,154.3161,332.9591,243.8697,0,U,64062,999,414,0,-.35E-6,0
SXM-10,2025-122A,2026-06-24T17:13:32.697984,1.00271244,.00018095,0.0207,35.0737,336.6407,43.3689,0,U,64290,999,375,0,-.8E-7,0
COSMOS 2589,2025-131A,2026-06-25T14:30:02.973312,1.00270322,.0001106,0.0454,96.7993,349.5781,142.8390,0,U,64467,999,364,0,-.28E-5,0
CHINASAT 9C,2025-132A,2026-06-26T02:43:35.253408,1.00272269,.0003359,0.0325,95.1586,356.3473,315.8398,0,U,64470,999,423,0,-.237E-5,0
MTG-S1,2025-143A,2026-06-24T17:46:37.650720,1.00400949,.00005853,0.5970,340.6178,288.6722,269.7793,0,U,64723,999,349,0,.23E-6,0
DROR 1,2025-148A,2026-06-26T03:58:47.375040,1.00271770,.0002748,0.0122,315.6372,82.6052,291.7269,0,U,64784,999,338,0,-.23E-6,0
SHIYAN-29,2025-196A,2026-06-26T01:01:29.150400,1.00283645,.0012697,28.8309,18.4237,175.1917,190.8153,0,U,65486,999,297,0,-.279E-5,0
NUSANTARA LIMA (NUSANTARA 5),2025-205A,2026-06-25T01:09:33.775776,1.00269667,.00003151,0.0367,148.1537,353.9981,261.2923,0,U,65588,999,279,0,-.348E-5,0
TJS-20,2025-238A,2026-06-25T23:09:43.379424,1.00270224,.0004648,5.4495,299.5204,163.3647,221.0385,0,U,66142,999,242,0,.4E-6,0
CMS-03 (GSAT-7R),2025-249B,2026-06-26T04:21:00.246240,1.00269326,.0002192,0.0693,264.1310,158.4895,350.9074,0,U,66311,999,243,0,-.65E-6,0
VIASAT-3 F2,2025-261A,2026-06-24T19:40:48.537408,1.00272510,.00002351,0.0049,139.4651,46.4657,303.2621,0,U,66454,999,287,0,-.225E-5,0
SHIJIAN-28 (SJ-28),2025-277A,2026-06-26T01:07:58.528416,1.00273572,.0000805,4.5153,271.9892,45.4376,90.5824,0,U,66549,999,224,0,-.344E-5,0
TJS-22,2025-290A,2026-06-25T20:28:03.711936,1.00272456,.0002259,1.5079,286.6675,322.1401,38.6527,0,U,66990,999,211,0,.6E-7,0
TJS-23,2025-306A,2026-06-25T13:53:41.609184,1.00267762,.0004779,5.5692,297.4432,180.5929,179.5701,0,U,67226,999,197,0,.3E-6,0
FENGYUN 4C,2025-312A,2026-06-25T18:21:59.215680,1.00271667,.0000612,0.0549,156.0822,356.6040,169.7151,0,U,67246,999,186,0,-.312E-5,0
SHIJIAN-29A (SJ-29A),2025-315A,2026-06-25T14:30:51.506784,1.00271068,.0003526,3.4193,94.9092,22.7935,86.9009,0,U,67302,999,170,0,-.59E-6,0
SHIJIAN-29B (SJ-29B),2025-315C,2026-06-24T23:15:34.667136,1.00270682,.0004351,3.4168,94.9169,34.9381,205.3365,0,U,67403,999,176,0,-.6E-6,0
ELEKTRO-L 5,2026-028A,2026-06-26T00:39:10.028160,1.00272170,.0001773,0.2362,315.2920,182.7120,222.0063,0,U,67756,999,134,0,-.87E-6,0
JAM-E JAM 1,2026-028B,2026-06-26T04:09:38.835360,1.00281038,.0000958,0.2412,305.3018,272.5181,153.0645,0,U,67757,999,121,0,.167E-5,0
ECHOSTAR 25,2026-045A,2026-06-26T00:03:14.691168,1.00271704,.0001875,0.0136,15.1953,72.5039,77.2349,0,U,68126,999,108,0,-.46E-6,0
TJS-24,2026-116A,2026-06-26T02:42:57.811968,1.00271161,.0000549,0.0399,113.0968,332.0366,320.1362,0,U,69235,999,31,0,-.22E-5,0
